1 25481U 98053G   16016.77978044 +.00000266 +00000-0 +14969-3 0  9991,2 25481 045.0071 256.0189 0001072 063.4597 296.6358 14.32201950904182
1 25481U 98053G   16017.12855681  .00000243  00000-0  14099-3 0  9991,2 25481  45.0070 254.3810 0001070  66.6179 293.4779 14.32202059904231
1 25481U 98053G   16017.89586452 +.00000225 +00000-0 +13446-3 0  9997,2 25481 045.0069 250.7774 0001061 074.6421 285.4542 14.32202487904343
1 25481U 98053G   16018.80268235  .00000223  00000-0  13367-3 0  9995,2 25481  45.0067 246.5186 0001061  83.8802 276.2165 14.32203086904475
1 25481U 98053G   16018.94219273 +.00000202 +00000-0 +12587-3 0  9998,2 25481 045.0066 245.8635 0001063 085.2330 274.8637 14.32203073904495
1 25481U 98053G   16019.84901003 +.00000223 +00000-0 +13352-3 0  9991,2 25481 045.0065 241.6046 0001076 094.3549 265.7420 14.32203817904621
1 25481U 98053G   16020.05827550  .00000184  00000-0  11922-3 0  9997,2 25481  45.0065 240.6219 0001082  96.1622 263.9347 14.32203767904656
1 25481U 98053G   16020.89533693 +.00000235 +00000-0 +13816-3 0  9992,2 25481 045.0064 236.6906 0001100 104.4376 255.6592 14.32204706904770
1 25481U 98053G   16021.80215289  .00000225  00000-0  13455-3 0  9990,2 25481  45.0064 232.4318 0001138 113.2717 246.8249 14.32205445904906
1 25481U 98053G   16021.94166306 +.00000225 +00000-0 +13460-3 0  9996,2 25481 045.0064 231.7766 0001148 114.4393 245.6573 14.32205550904925
1 25481U 98053G   16022.91823353 +.00000233 +00000-0 +13741-3 0  9997,2 25481 045.0064 227.1902 0001198 123.2126 236.8835 14.32206415905063
1 25481U 98053G   16022.98798854  .00000234  00000-0  13765-3 0  9998,2 25481  45.0064 226.8627 0001206 123.9380 236.1581 14.32206480905076
1 25481U 98053G   16023.89480346 +.00000247 +00000-0 +14262-3 0  9990,2 25481 045.0064 222.6039 0001253 131.2212 228.8743 14.32207286905203
1 25481U 98053G   16024.03431340  .00000248  00000-0  14271-3 0  9998,2 25481  45.0064 221.9487 0001261 132.2679 227.8274 14.32207405905222
1 25481U 98053G   16024.94112782 +.00000237 +00000-0 +13867-3 0  9992,2 25481 045.0064 217.6899 0001323 139.4652 220.6292 14.32208036905356
1 25481U 98053G   16025.49916716  .00000246  00000-0  14230-3 0  9997,2 25481  45.0063 215.0691 0001357 143.7194 216.3744 14.32208516905439
1 25481U 98053G   16025.91769672 +.00000196 +00000-0 +12363-3 0  9990,2 25481 045.0063 213.1036 0001392 146.4442 213.6493 14.32208539905498
1 25481U 98053G   16026.54549074  .00000210  00000-0  12872-3 0  9994,2 25481  45.0063 210.1551 0001436 150.9213 209.1713 14.32209058905584
1 25481U 98053G   16026.89426513 +.00000187 +00000-0 +12054-3 0  9999,2 25481 045.0063 208.5172 0001470 153.1499 206.9423 14.32209192905631
1 25481U 98053G   16027.80107815  .00000195  00000-0  12340-3 0  9999,2 25481  45.0063 204.2583 0001557 159.5372 200.5537 14.32209890905761
1 25481U 98053G   16027.87083299 +.00000194 +00000-0 +12303-3 0  9993,2 25481 045.0063 203.9308 0001563 159.9444 200.1463 14.32209935905778
1 25481U 98053G   16028.84740048  .00000151  00000-0  10727-3 0  9994,2 25481  45.0063 199.3444 0001654 166.3213 193.7678 14.32210388905919
1 25481U 98053G   16028.91715533 +.00000139 +00000-0 +10263-3 0  9994,2 25481 045.0063 199.0168 0001660 166.7770 193.3120 14.32210362905929
1 25481U 98053G   16029.89372232  .00000148  00000-0  10590-3 0  9990,2 25481  45.0063 194.4304 0001752 172.9998 187.0872 14.32211086906067
1 25481U 98053G   16030.87028895 +.00000171 +00000-0 +11448-3 0  9992,2 25481 045.0065 189.8440 0001833 178.3528 181.7325 14.32211853906209
1 25481U 98053G   16030.94004369  .00000158  00000-0  10968-3 0  9991,2 25481  45.0065 189.5164 0001840 178.7905 181.2945 14.32211831906210
1 25481U 98053G   16031.84685513 +.00000195 +00000-0 +12320-3 0  9992,2 25481 045.0067 185.2576 0001920 183.8086 176.2746 14.32212602906342
1 25481U 98053G   16032.47464727  .00000257  00000-0  14621-3 0  9999,2 25481  45.0068 182.3092 0001974 187.2941 172.7877 14.32213360906439
1 25481U 98053G   16032.82342067 +.00000264 +00000-0 +14885-3 0  9990,2 25481 045.0068 180.6713 0002003 189.1377 170.9433 14.32213620906480
1 25481U 98053G   16033.79998591  .00000261  00000-0  14750-3 0  9994,2 25481  45.0069 176.0850 0002086 193.9946 166.0843 14.32214194906622
1 25481U 98053G   16033.86974054 +.00000237 +00000-0 +13888-3 0  9994,2 25481 045.0069 175.7574 0002092 194.3708 165.7079 14.32214117906632
1 25481U 98053G   16034.84630507  .00000239  00000-0  13953-3 0  9990,2 25481  45.0070 171.1711 0002173 198.9186 161.1579 14.32214811906778
1 25481U 98053G   16035.75311442 +.00000243 +00000-0 +14111-3 0  9997,2 25481 045.0071 166.9124 0002255 203.2397 156.8347 14.32215529906900
1 25481U 98053G   16036.52041410  .00000246  00000-0  14206-3 0  9996,2 25481  45.0071 163.3088 0002324 206.8627 153.2099 14.32216226907015
1 25481U 98053G   16036.72967750 +.00000267 +00000-0 +14982-3 0  9996,2 25481 045.0071 162.3262 0002336 207.8537 152.2184 14.32216560907040
1 25481U 98053G   16037.77599436  .00000291  00000-0  15864-3 0  9991,2 25481  45.0071 157.4122 0002424 212.5215 147.5482 14.32217741907190
1 25481U 98053G   16037.84574875 +.00000282 +00000-0 +15541-3 0  9991,2 25481 045.0071 157.0846 0002428 212.8860 147.1836 14.32217777907202
1 25481U 98053G   16038.68280169 +.00000329 +00000-0 +17247-3 0  9991,2 25481 045.0071 153.1534 0002501 216.5475 143.5201 14.32218873907325
1 25481U 98053G   16039.45009942  .00000410  00000-0  20227-3 0  9998,2 25481  45.0072 149.5498 0002566 220.0635 140.0022 14.32220199907432
1 25481U 98053G   16039.58960804 +.00000418 +00000-0 +20550-3 0  9992,2 25481 045.0072 148.8946 0002573 220.6225 139.4429 14.32220413907455
1 25481U 98053G   16040.49641409  .00000411  00000-0  20291-3 0  9996,2 25481  45.0073 144.6359 0002645 224.5492 135.5141 14.32221347907586
1 25481U 98053G   16040.56616832 +.00000422 +00000-0 +20691-3 0  9992,2 25481 045.0073 144.3083 0002650 224.8729 135.1903 14.32221491907592
1 25481U 98053G   16041.75199024  .00000454  00000-0  21847-3 0  9992,2 25481  45.0074 138.7391 0002731 229.7264 130.3343 14.32223012907765
1 25481U 98053G   16042.72854850 +.00000490 +00000-0 +23164-3 0  9999,2 25481 045.0075 134.1529 0002792 233.7159 126.3429 14.32224358907904
1 25481U 98053G   16043.21682728  .00000497  00000-0  23442-3 0  9993,2 25481  45.0076 131.8596 0002824 235.8081 124.2497 14.32224990907977
1 25481U 98053G   16043.70510560 +.00000529 +00000-0 +24619-3 0  9994,2 25481 045.0076 129.5666 0002847 237.7177 122.3393 14.32225864908045
1 25481U 98053G   16044.47239983  .00000512  00000-0  23994-3 0  9993,2 25481  45.0077 125.9630 0002893 240.9057 119.1500 14.32226842908154
1 25481U 98053G   16044.68166181 +.00000500 +00000-0 +23555-3 0  9995,2 25481 045.0077 124.9803 0002896 241.7517 118.3037 14.32227084908186
1 25481U 98053G   16045.51870911  .00000592  00000-0  26911-3 0  9991,2 25481  45.0077 121.0493 0002934 245.0654 114.9887 14.32228839908309
1 25481U 98053G   16045.58846304 +.00000582 +00000-0 +26558-3 0  9993,2 25481 045.0077 120.7217 0002935 245.3313 114.7228 14.32228891908311
1 25481U 98053G   16046.56501733  .00000513  00000-0  24034-3 0  9997,2 25481  45.0077 116.1354 0002978 249.2485 110.8042 14.32230036908452
1 25481U 98053G   16047.26255549 +.00000544 +00000-0 +25150-3 0  9990,2 25481 045.0077 112.8594 0003012 252.0369 108.0148 14.32231288908551
1 25481U 98053G   16048.16935399  .00000595  00000-0  27043-3 0  9997,2 25481  45.0077 108.6006 0003046 255.7803 104.2705 14.32233088908683
1 25481U 98053G   16048.37861513 +.00000601 +00000-0 +27265-3 0  9990,2 25481 045.0077 107.6178 0003051 256.5951 103.4555 14.32233459908711
1 25481U 98053G   16049.21565967  .00000483  00000-0  22936-3 0  9996,2 25481  45.0077 103.6865 0003078 259.9960 100.0539 14.32233994908838
1 25481U 98053G   16049.49467414 +.00000574 +00000-0 +26280-3 0  9991,2 25481 045.0077 102.3762 0003079 261.0878 098.9619 14.32234925908876
1 25481U 98053G   16050.47122513  .00000523  00000-0  24393-3 0  9996,2 25481  45.0077  97.7897 0003104 264.7771  95.2720 14.32235875909018
1 25481U 98053G   16051.51752879  .00000446  00000-0  21574-3 0  9998,2 25481  45.0077  92.8755 0003123 268.6709  91.3780 14.32236737909169
1 25481U 98053G   16051.58728250 +.00000415 +00000-0 +20418-3 0  9993,2 25481 045.0077 092.5480 0003126 269.0345 091.0142 14.32236604909178
1 25481U 98053G   16052.84284618  .00000360  00000-0  18406-3 0  9991,2 25481  45.0078  86.6512 0003163 275.2039  84.8446 14.32237680909351
1 25481U 98053G   16052.91259968 +.00000323 +00000-0 +17046-3 0  9997,2 25481 045.0078 086.3236 0003158 275.3523 084.6963 14.32237561909365
1 25481U 98053G   16053.54038136 +.00000284 +00000-0 +15594-3 0  9991,2 25481 045.0077 083.3751 0003142 276.8107 083.2381 14.32237923909451
1 25481U 98053G   16054.09840915  .00000237  00000-0  13860-3 0  9990,2 25481  45.0078  80.7542 0003144 279.0768  80.9722 14.32238226909530
1 25481U 98053G   16054.51693018 +.00000215 +00000-0 +13057-3 0  9991,2 25481 045.0078 078.7886 0003134 280.5261 079.5231 14.32238450909596
1 25481U 98053G   16055.42372500  .00000196  00000-0  12357-3 0  9992,2 25481  45.0078  74.5298 0003128 284.2425  75.8073 14.32239157909726
1 25481U 98053G   16055.49347842 +.00000195 +00000-0 +12319-3 0  9997,2 25481 045.0078 074.2022 0003127 284.5716 075.4783 14.32239213909731
1 25481U 98053G   16056.47002645  .00000176  00000-0  11640-3 0  9990,2 25481  45.0079  69.6158 0003119 288.7528  71.2979 14.32239861909873
1 25481U 98053G   16057.86509401 +.00000188 +00000-0 +12083-3 0  9991,2 25481 045.0080 063.0636 0003096 294.2998 065.7524 14.32240989910072
1 25481U 98053G   16058.07435401  .00000198  00000-0  12451-3 0  9993,2 25481  45.0080  62.0808 0003088 295.0086  65.0440 14.32241214910106
1 25481U 98053G   16058.91139403 +.00000241 +00000-0 +14020-3 0  9992,2 25481 045.0080 058.1495 0003061 298.3927 061.6611 14.32242045910223
1 25481U 98053G   16059.19040724  .00000247  00000-0  14248-3 0  9998,2 25481  45.0080  56.8390 0003045 299.3208  60.7334 14.32242303910260
